{
  "64333": {
    "noradId": "64333",
    "tle": [
      "1 64333C 25124S   26022.45881944  .00030039  00000+0  10875-2 0   222",
      "2 64333  43.0013  22.9245 0001410 259.3938 278.4911 15.27564642    16"
    ]
  },
  "64334": {
    "noradId": "64334",
    "tle": [
      "1 64334C 25124T   26022.46229167 -.00045946  00000+0 -16633-2 0   220",
      "2 64334  43.0031  23.0027 0001095 244.2784 270.2600 15.27642082    18"
    ]
  },
  "64335": {
    "noradId": "64335",
    "tle": [
      "1 64335C 25124U   26022.46020833  .00032082  00000+0  11616-2 0   221",
      "2 64335  43.0013  22.6180 0001855 269.0709  36.7407 15.27557993    16"
    ]
  },
  "64336": {
    "noradId": "64336",
    "tle": [
      "1 64336C 25124V   26022.46159722 -.00043903  00000+0 -15890-2 0   226",
      "2 64336  43.0016  19.0044 0001686 261.3397 113.0880 15.27645649    19"
    ]
  },
  "64337": {
    "noradId": "64337",
    "tle": [
      "1 64337C 25124W   26022.46437500 -.00037293  00000+0 -13491-2 0   220",
      "2 64337  43.0037  22.4146 0001416 269.4232 137.0637 15.27655417    12"
    ]
  },
  "64338": {
    "noradId": "64338",
    "tle": [
      "1 64338C 25124X   26022.46437500  .00031273  00000+0  11321-2 0   221",
      "2 64338  43.0014  19.1506 0001377 269.6797  56.3802 15.27563212    13"
    ]
  },
  "64339": {
    "noradId": "64339",
    "tle": [
      "1 64339C 25124Y   26022.45812500  .00033236  00000+0  12024-2 0   220",
      "2 64339  43.0010  22.7866 0001548 270.6265 319.9603 15.27584341    14"
    ]
  },
  "64344": {
    "noradId": "64344",
    "tle": [
      "1 64344C 25126A   26022.46159722  .00010953  00000+0  91806-3 0   226",
      "2 64344  70.0020 150.9513 0003257 272.0141 282.1617 14.98313513    16"
    ]
  },
  "64345": {
    "noradId": "64345",
    "tle": [
      "1 64345C 25126B   26022.45951389 -.00002216  00000+0 -18575-3 0   222",
      "2 64345  70.0013 150.9264 0003335 270.9322 295.4380 14.98330934    17"
    ]
  },
  "64346": {
    "noradId": "64346",
    "tle": [
      "1 64346C 25126C   26022.46020833 -.00002279  00000+0 -19099-3 0   226",
      "2 64346  70.0019 151.1021 0003085 274.0734 138.4941 14.98329589    15"
    ]
  },
  "64347": {
    "noradId": "64347",
    "tle": [
      "1 64347C 25126D   26022.46159722  .00003933  00000+0  32955-3 0   229",
      "2 64347  70.0014 151.1203 0003143 271.8872 124.6896 14.98336590    12"
    ]
  },
  "64348": {
    "noradId": "64348",
    "tle": [
      "1 64348C 25126E   26022.45951389 -.00002533  00000+0 -21234-3 0   223",
      "2 64348  70.0015 151.2048 0003113 272.5073  46.2599 14.98327580    18"
    ]
  },
  "64349": {
    "noradId": "64349",
    "tle": [
      "1 64349C 25126F   26022.46020833  .00001236  00000+0  10360-3 0   221",
      "2 64349  70.0016 150.9496 0003080 271.2115 276.4254 14.98309608    15"
    ]
  },
  "64350": {
    "noradId": "64350",
    "tle": [
      "1 64350C 25126G   26022.46090278 -.00002040  00000+0 -17093-3 0   229",
      "2 64350  70.0020 151.0715 0003170 271.8659 166.8763 14.98342205    14"
    ]
  },
  "64351": {
    "noradId": "64351",
    "tle": [
      "1 64351C 25126H   26022.46090278 -.00002491  00000+0 -20878-3 0   225",
      "2 64351  70.0020 150.9942 0003381 271.8388 233.6101 14.98328753    19"
    ]
  },
  "64352": {
    "noradId": "64352",
    "tle": [
      "1 64352C 25126J   26022.46229167 -.00002079  00000+0 -17422-3 0   220",
      "2 64352  70.0017 151.1462 0003055 272.9597 105.8077 14.98327348    19"
    ]
  },
  "64353": {
    "noradId": "64353",
    "tle": [
      "1 64353C 25126K   26022.46368056  .00006713  00000+0  56265-3 0   227",
      "2 64353  70.0016 150.9192 0003326 271.1779 316.7480 14.98317090    14"
    ]
  },
  "64354": {
    "noradId": "64354",
    "tle": [
      "1 64354C 25126L   26022.45951389  .00002490  00000+0  20868-3 0   222",
      "2 64354  70.0020 151.0029 0003558 271.4297 227.3966 14.98319528    10"
    ]
  },
  "64355": {
    "noradId": "64355",
    "tle": [
      "1 64355C 25126M   26022.45881944  .00016926  00000+0  14187-2 0   227",
      "2 64355  70.0019 151.0279 0003006 273.7391 198.8240 14.98307072    12"
    ]
  },
  "64356": {
    "noradId": "64356",
    "tle": [
      "1 64356C 25126N   26022.45743056 -.00002367  00000+0 -19841-3 0   228",
      "2 64356  70.0014 151.1808 0003092 272.6045  57.4307 14.98324575    17"
    ]
  },
  "64357": {
    "noradId": "64357",
    "tle": [
      "1 64357C 25126P   26022.46229167 -.00005705  00000+0 -47804-3 0   221",
      "2 64357  70.0017 151.1924 0003278 270.9844  61.8971 14.98343124    11"
    ]
  },
  "64358": {
    "noradId": "64358",
    "tle": [
      "1 64358C 25126Q   26022.43590278  .00002442  00000+0  20460-3 0   225",
      "2 64358  70.0014 150.9312 0003535 271.1954 211.9358 14.98330766    13"
    ]
  },
  "64359": {
    "noradId": "64359",
    "tle": [
      "1 64359C 25126R   26022.46159722  .00002899  00000+0  24292-3 0   227",
      "2 64359  70.0019 150.9655 0003456 281.8107 249.8079 14.98333551    14"
    ]
  },
  "64360": {
    "noradId": "64360",
    "tle": [
      "1 64360C 25126S   26022.46159722 -.00002954  00000+0 -24761-3 0   224",
      "2 64360  70.0018 151.0182 0003484 284.0826 202.5815 14.98327153    11"
    ]
  },
  "64361": {
    "noradId": "64361",
    "tle": [
      "1 64361C 25126T   26022.45881944 -.00002527  00000+0 -21183-3 0   223",
      "2 64361  70.0021 151.0526 0003217 273.3958 176.6772 14.98327185    17"
    ]
  },
  "64362": {
    "noradId": "64362",
    "tle": [
      "1 64362C 25126U   26022.45881944 -.00000406  00000+0 -34025-4 0   228",
      "2 64362  70.0017 150.9023 0003343 268.9698 316.1232 14.98328883    12"
    ]
  },
  "64363": {
    "noradId": "64363",
    "tle": [
      "1 64363C 25126V   26022.45881944 -.00002530  00000+0 -21193-3 0   220",
      "2 64363  70.0017 150.8511 0003267 272.6958 357.3871 14.98344012    18"
    ]
  },
  "64364": {
    "noradId": "64364",
    "tle": [
      "1 64364C 25126W   26022.46090278 -.00044198  00000+0 -37038-2 0   224",
      "2 64364  70.0018 150.9707 0002918 271.0609 257.8558 14.98377793    14"
    ]
  },
  "64365": {
    "noradId": "64365",
    "tle": [
      "1 64365C 25126X   26022.46090278 -.00018808  00000+0 -15756-2 0   227",
      "2 64365  70.0013 151.2205 0002948 270.4576  33.2835 14.98362688    17"
    ]
  },
  "64366": {
    "noradId": "64366",
    "tle": [
      "1 64366C 25126Y   26022.45881944 -.00003188  00000+0 -26726-3 0   220",
      "2 64366  70.0015 150.8726 0003302 270.9068 336.7287 14.98324273    19"
    ]
  },
  "64367": {
    "noradId": "64367",
    "tle": [
      "1 64367C 25126Z   26022.46437500 -.00034303  00000+0 -28733-2 0   229",
      "2 64367  70.0015 150.8834 0003267 267.6579 346.5259 14.98383499    13"
    ]
  },
  "64368": {
    "noradId": "64368",
    "tle": [
      "1 64368C 25126AA  26022.46090278 -.00002748  00000+0 -23029-3 0   229",
      "2 64368  70.0016 151.1201 0003233 273.7290 120.0761 14.98329931    12"
    ]
  },
  "64369": {
    "noradId": "64369",
    "tle": [
      "1 64369C 25126AB  26022.46090278  .00015721  00000+0  13178-2 0   226",
      "2 64369  70.0012 151.1460 0003110 273.9728  96.4009 14.98306266    15"
    ]
  },
  "64370": {
    "noradId": "64370",
    "tle": [
      "1 64370C 25127A   26022.49284722 -.00030595  00000+0 -23731-3 0   226",
      "2 64370  43.0004   3.0628 0001261 275.1356 173.3549 15.70900932    10"
    ]
  },
  "64371": {
    "noradId": "64371",
    "tle": [
      "1 64371C 25127B   26022.49423611 -.00048098  00000+0 -37331-3 0   227",
      "2 64371  43.0005   3.2783 0001506 266.7595  99.4580 15.70903493    17"
    ]
  },
  "64372": {
    "noradId": "64372",
    "tle": [
      "1 64372C 25127C   26022.49770833 -.00045271  00000+0 -35138-3 0   222",
      "2 64372  43.0005   2.8082 0001157 266.1982 300.0434 15.70900217    11"
    ]
  },
  "64373": {
    "noradId": "64373",
    "tle": [
      "1 64373C 25127D   26022.49145833 -.00043935  00000+0 -34094-3 0   224",
      "2 64373  43.0003   3.4562 0001561 269.3066  15.8906 15.70903070    12"
    ]
  },
  "64374": {
    "noradId": "64374",
    "tle": [
      "1 64374C 25127E   26022.49562500 -.00056657  00000+0 -43967-3 0   223",
      "2 64374  43.0002   2.5962 0001107 257.8400  26.7723 15.70916298    10"
    ]
  },
  "64375": {
    "noradId": "64375",
    "tle": [
      "1 64375C 25127F   26022.49493056 -.00047996  00000+0 -37246-3 0   222",
      "2 64375  43.0003   3.4219 0001341 263.9332  46.0824 15.70906930    18"
    ]
  },
  "64376": {
    "noradId": "64376",
    "tle": [
      "1 64376C 25127G   26022.49701389 -.00023062  00000+0 -17909-3 0   226",
      "2 64376  43.0007   2.9602 0001382 268.5618 233.6734 15.70866357    18"
    ]
  },
  "64377": {
    "noradId": "64377",
    "tle": [
      "1 64377C 25127H   26022.49145833 -.00110540  00000+0 -85758-3 0   228",
      "2 64377  43.0002   3.2177 0001553 276.6950 103.8150 15.70974861    14"
    ]
  },
  "64378": {
    "noradId": "64378",
    "tle": [
      "1 64378C 25127J   26022.49354167 -.00069045  00000+0 -53568-3 0   228",
      "2 64378  43.0003   2.7559 0001725 291.0881 281.5885 15.70932997    12"
    ]
  },
  "64379": {
    "noradId": "64379",
    "tle": [
      "1 64379C 25127K   26022.49423611 -.00067568  00000+0 -52420-3 0   224",
      "2 64379  43.0004   3.3497 0001516 257.6524  78.4672 15.70932928    13"
    ]
  },
  "64380": {
    "noradId": "64380",
    "tle": [
      "1 64380C 25127L   26022.49562500 -.00036186  00000+0 -28085-3 0   229",
      "2 64380  43.0003   3.1164 0001368 274.6930 159.5129 15.70892037    12"
    ]
  },
  "64381": {
    "noradId": "64381",
    "tle": [
      "1 64381C 25127M   26022.49493056 -.00063998  00000+0 -49674-3 0   227",
      "2 64381  43.0006   2.8959 0001364 257.3056 263.1488 15.70918131    11"
    ]
  }
}